start=new Date('2022-12-11T00:00:00.000Z').valueOf();
sats=[{"MEAN_MOTION":"15.59174848","RA_OF_ASC_NODE":"287.0632","REF_FRAME":"TEME","LAUNCH_DATE":"2022-10-28","SEMIMAJOR_AXIS":"6768.181","TIME_SYSTEM":"UTC","INCLINATION":"53.2178","DECAY_DATE":null,"GP_ID":"219980080","CLASSIFICATION_TYPE":"U","BSTAR":"-0.01571100000000","PERIOD":"92.357","TLE_LINE1":"1 54183U 22141AC  22344.91667824 -.01133044  00000-0 -15711-1 0  9993","ARG_OF_PERICENTER":"67.6341","ECCENTRICITY":"0.00011790","FILE":"3688965","NORAD_CAT_ID":"54183","MEAN_MOTION_DOT":"-0.01133044","MEAN_ELEMENT_THEORY":"SGP4","REV_AT_EPOCH":"130","PERIAPSIS":"389.248","MEAN_ANOMALY":"20.1119","MEAN_MOTION_DDOT":"0.0000000000000","APOAPSIS":"390.844","ELEMENT_SET_NO":"999","EPOCH":"2022-12-10T22:00:00.999936","COUNTRY_CODE":"US","OBJECT_ID":"2022-141AC","OBJECT_NAME":"STARLINK-5239","SITE":"AFWTR","TLE_LINE2":"2 54183  53.2178 287.0632 0001179  67.6341  20.1119 15.59174848  1302","CENTER_NAME":"EARTH","EPHEMERIS_TYPE":"0","OBJECT_TYPE":"PAYLOAD","RCS_SIZE":"LARGE"},{"SEMIMAJOR_AXIS":"6768.067","LAUNCH_DATE":"2022-10-28","TIME_SYSTEM":"UTC","REF_FRAME":"TEME","MEAN_MOTION":"15.59214355","RA_OF_ASC_NODE":"287.0591","DECAY_DATE":null,"INCLINATION":"53.2178","CLASSIFICATION_TYPE":"U","BSTAR":"-0.01568600000000","GP_ID":"219979250","ECCENTRICITY":"0.00012080","TLE_LINE1":"1 54184U 22141AD  22344.91667824 -.01132971  00000-0 -15686-1 0  9993","PERIOD":"92.354","ARG_OF_PERICENTER":"63.9590","REV_AT_EPOCH":"130","MEAN_ANOMALY":"25.7980","PERIAPSIS":"389.114","MEAN_ELEMENT_THEORY":"SGP4","NORAD_CAT_ID":"54184","FILE":"3688965","MEAN_MOTION_DOT":"-0.01132971","EPOCH":"2022-12-10T22:00:00.999936","COUNTRY_CODE":"US","APOAPSIS":"390.749","MEAN_MOTION_DDOT":"0.0000000000000","ELEMENT_SET_NO":"999","TLE_LINE2":"2 54184  53.2178 287.0591 0001208  63.9590  25.7980 15.59214355  1300","SITE":"AFWTR","OBJECT_NAME":"STARLINK-5162","OBJECT_ID":"2022-141AD","EPHEMERIS_TYPE":"0","CENTER_NAME":"EARTH","RCS_SIZE":"LARGE","OBJECT_TYPE":"PAYLOAD"},{"RA_OF_ASC_NODE":"287.0653","MEAN_MOTION":"15.59155091","REF_FRAME":"TEME","LAUNCH_DATE":"2022-10-28","SEMIMAJOR_AXIS":"6768.238","TIME_SYSTEM":"UTC","INCLINATION":"53.2178","DECAY_DATE":null,"GP_ID":"219979876","CLASSIFICATION_TYPE":"U","BSTAR":"-0.01572300000000","PERIOD":"92.358","TLE_LINE1":"1 54185U 22141AE  22344.91667824 -.01133047  00000-0 -15723-1 0  9991","ARG_OF_PERICENTER":"69.2515","ECCENTRICITY":"0.00011670","NORAD_CAT_ID":"54185","FILE":"3688965","MEAN_MOTION_DOT":"-0.01133047","MEAN_ELEMENT_THEORY":"SGP4","REV_AT_EPOCH":"130","PERIAPSIS":"389.313","MEAN_ANOMALY":"17.4880","MEAN_MOTION_DDOT":"0.0000000000000","APOAPSIS":"390.893","ELEMENT_SET_NO":"999","EPOCH":"2022-12-10T22:00:00.999936","COUNTRY_CODE":"US","OBJECT_ID":"2022-141AE","OBJECT_NAME":"STARLINK-5235","SITE":"AFWTR","TLE_LINE2":"2 54185  53.2178 287.0653 0001167  69.2515  17.4880 15.59155091  1308","CENTER_NAME":"EARTH","EPHEMERIS_TYPE":"0","OBJECT_TYPE":"PAYLOAD","RCS_SIZE":"LARGE"},{"TLE_LINE2":"2 54186  53.2151 288.8631 0002869 359.4237   0.6779 15.73175569  6876","SITE":"AFWTR","OBJECT_NAME":"STARLINK-5194","OBJECT_ID":"2022-141AF","COUNTRY_CODE":"US","EPOCH":"2022-12-10T11:50:40.807104","ELEMENT_SET_NO":"999","APOAPSIS":"351.760","MEAN_MOTION_DDOT":"0.0000000000000","RCS_SIZE":"LARGE","OBJECT_TYPE":"PAYLOAD","EPHEMERIS_TYPE":"0","CENTER_NAME":"EARTH","BSTAR":"-0.00027213000000","CLASSIFICATION_TYPE":"U","GP_ID":"219936436","DECAY_DATE":null,"INCLINATION":"53.2151","TIME_SYSTEM":"UTC","SEMIMAJOR_AXIS":"6727.965","LAUNCH_DATE":"2022-10-28","REF_FRAME":"TEME","MEAN_MOTION":"15.73175569","RA_OF_ASC_NODE":"288.8631","PERIAPSIS":"347.900","MEAN_ANOMALY":"0.6779","REV_AT_EPOCH":"687","MEAN_ELEMENT_THEORY":"SGP4","NORAD_CAT_ID":"54186","FILE":"3688140","MEAN_MOTION_DOT":"-0.00038608","ECCENTRICITY":"0.00028690","ARG_OF_PERICENTER":"359.4237","TLE_LINE1":"1 54186U 22141AF  22344.49352786 -.00038608  00000-0 -27213-3 0  9998","PERIOD":"91.535"},{"LAUNCH_DATE":"2022-10-28","SEMIMAJOR_AXIS":"6768.256","TIME_SYSTEM":"UTC","RA_OF_ASC_NODE":"287.0671","MEAN_MOTION":"15.59148805","REF_FRAME":"TEME","INCLINATION":"53.2178","DECAY_DATE":null,"GP_ID":"219980475","CLASSIFICATION_TYPE":"U","BSTAR":"-0.01572800000000","ECCENTRICITY":"0.00011210","TLE_LINE1":"1 54187U 22141AG  22344.91667824 -.01133112  00000-0 -15728-1 0  9991","PERIOD":"92.358","ARG_OF_PERICENTER":"79.3777","REV_AT_EPOCH":"130","MEAN_ANOMALY":"6.4730","PERIAPSIS":"389.363","NORAD_CAT_ID":"54187","FILE":"3688965","MEAN_MOTION_DOT":"-0.01133112","MEAN_ELEMENT_THEORY":"SGP4","EPOCH":"2022-12-10T22:00:00.999936","COUNTRY_CODE":"US","MEAN_MOTION_DDOT":"0.0000000000000","APOAPSIS":"390.880","ELEMENT_SET_NO":"999","TLE_LINE2":"2 54187  53.2178 287.0671 0001121  79.3777   6.4730 15.59148805  1309","OBJECT_ID":"2022-141AG","SITE":"AFWTR","OBJECT_NAME":"STARLINK-5240","EPHEMERIS_TYPE":"0","CENTER_NAME":"EARTH","RCS_SIZE":"LARGE","OBJECT_TYPE":"PAYLOAD"},{"PERIAPSIS":"348.081","MEAN_ANOMALY":"345.3437","REV_AT_EPOCH":"683","MEAN_ELEMENT_THEORY":"SGP4","NORAD_CAT_ID":"54188","FILE":"3688140","MEAN_MOTION_DOT":"-0.00060854","ECCENTRICITY":"0.00025400","ARG_OF_PERICENTER":"14.7657","TLE_LINE1":"1 54188U 22141AH  22344.23949370 -.00060854  00000-0 -43241-3 0  9990","PERIOD":"91.534","CLASSIFICATION_TYPE":"U","BSTAR":"-0.00043241000000","GP_ID":"219936243","DECAY_DATE":null,"INCLINATION":"53.2149","TIME_SYSTEM":"UTC","SEMIMAJOR_AXIS":"6727.925","LAUNCH_DATE":"2022-10-28","REF_FRAME":"TEME","RA_OF_ASC_NODE":"290.1156","MEAN_MOTION":"15.73189432","RCS_SIZE":"LARGE","OBJECT_TYPE":"PAYLOAD","EPHEMERIS_TYPE":"0","CENTER_NAME":"EARTH","TLE_LINE2":"2 54188  53.2149 290.1156 0002540  14.7657 345.3437 15.73189432  6836","SITE":"AFWTR","OBJECT_NAME":"STARLINK-5238","OBJECT_ID":"2022-141AH","COUNTRY_CODE":"US","EPOCH":"2022-12-10T05:44:52.255680","ELEMENT_SET_NO":"999","APOAPSIS":"351.499","MEAN_MOTION_DDOT":"0.0000000000000"},{"EPHEMERIS_TYPE":"0","CENTER_NAME":"EARTH","RCS_SIZE":"LARGE","OBJECT_TYPE":"PAYLOAD","COUNTRY_CODE":"US","EPOCH":"2022-12-10T22:00:00.999936","ELEMENT_SET_NO":"999","APOAPSIS":"368.336","MEAN_MOTION_DDOT":"0.0000000000000","TLE_LINE2":"2 54189  53.2153 286.9739 0000518 328.1328 167.4580 15.66828686  1304","OBJECT_NAME":"STARLINK-5182","SITE":"AFWTR","OBJECT_ID":"2022-141AJ","ECCENTRICITY":"0.00005180","ARG_OF_PERICENTER":"328.1328","TLE_LINE1":"1 54189U 22141AJ  22344.91667824  .00039130  00000-0  36699-3 0  9997","PERIOD":"91.905","PERIAPSIS":"367.637","MEAN_ANOMALY":"167.4580","REV_AT_EPOCH":"130","MEAN_ELEMENT_THEORY":"SGP4","NORAD_CAT_ID":"54189","FILE":"3688965","MEAN_MOTION_DOT":"0.00039130","TIME_SYSTEM":"UTC","SEMIMAJOR_AXIS":"6746.122","LAUNCH_DATE":"2022-10-28","REF_FRAME":"TEME","MEAN_MOTION":"15.66828686","RA_OF_ASC_NODE":"286.9739","CLASSIFICATION_TYPE":"U","BSTAR":"0.00036699000000","GP_ID":"219980271","DECAY_DATE":null,"INCLINATION":"53.2153"},{"ELEMENT_SET_NO":"999","APOAPSIS":"352.216","MEAN_MOTION_DDOT":"0.0000000000000","COUNTRY_CODE":"US","EPOCH":"2022-12-10T05:44:24.916992","SITE":"AFWTR","OBJECT_NAME":"STARLINK-5281","OBJECT_ID":"2022-141AK","TLE_LINE2":"2 54190  53.2151 290.1200 0005718 351.4729   8.6193 15.73687948  6836","CENTER_NAME":"EARTH","EPHEMERIS_TYPE":"0","OBJECT_TYPE":"PAYLOAD","RCS_SIZE":"LARGE","REF_FRAME":"TEME","RA_OF_ASC_NODE":"290.1200","MEAN_MOTION":"15.73687948","TIME_SYSTEM":"UTC","SEMIMAJOR_AXIS":"6726.504","LAUNCH_DATE":"2022-10-28","BSTAR":"0.00149210000000","CLASSIFICATION_TYPE":"U","GP_ID":"219936043","DECAY_DATE":null,"INCLINATION":"53.2151","ARG_OF_PERICENTER":"351.4729","PERIOD":"91.505","TLE_LINE1":"1 54190U 22141AK  22344.23917728  .00219007  00000-0  14921-2 0  9991","ECCENTRICITY":"0.00057180","MEAN_ELEMENT_THEORY":"SGP4","FILE":"3688140","NORAD_CAT_ID":"54190","MEAN_MOTION_DOT":"0.00219007","MEAN_ANOMALY":"8.6193","PERIAPSIS":"344.523","REV_AT_EPOCH":"683"},{"ARG_OF_PERICENTER":"5.1935","TLE_LINE1":"1 54191U 22141AL  22344.43035076  .00012044  00000-0  89792-4 0  9993","PERIOD":"91.529","ECCENTRICITY":"0.00056870","MEAN_ELEMENT_THEORY":"SGP4","FILE":"3688140","NORAD_CAT_ID":"54191","MEAN_MOTION_DOT":"0.00012044","MEAN_ANOMALY":"354.9144","PERIAPSIS":"345.718","REV_AT_EPOCH":"686","REF_FRAME":"TEME","MEAN_MOTION":"15.73275825","RA_OF_ASC_NODE":"289.1804","TIME_SYSTEM":"UTC","SEMIMAJOR_AXIS":"6727.679","LAUNCH_DATE":"2022-10-28","BSTAR":"0.00008979200000","CLASSIFICATION_TYPE":"U","GP_ID":"219935838","DECAY_DATE":null,"INCLINATION":"53.2157","CENTER_NAME":"EARTH","EPHEMERIS_TYPE":"0","OBJECT_TYPE":"PAYLOAD","RCS_SIZE":"LARGE","ELEMENT_SET_NO":"999","APOAPSIS":"353.370","MEAN_MOTION_DDOT":"0.0000000000000","COUNTRY_CODE":"US","EPOCH":"2022-12-10T10:19:42.305664","SITE":"AFWTR","OBJECT_NAME":"STARLINK-4619","OBJECT_ID":"2022-141AL","TLE_LINE2":"2 54191  53.2157 289.1804 0005687   5.1935 354.9144 15.73275825  6861"},{"TLE_LINE1":"1 54192U 22141AM  22344.23834280  .00015502  00000-0  11411-3 0  9990","PERIOD":"91.527","ARG_OF_PERICENTER":"0.8520","ECCENTRICITY":"0.00043450","MEAN_ELEMENT_THEORY":"SGP4","MEAN_MOTION_DOT":"0.00015502","FILE":"3688140","NORAD_CAT_ID":"54192","REV_AT_EPOCH":"683","MEAN_ANOMALY":"359.2507","PERIAPSIS":"346.523","REF_FRAME":"TEME","RA_OF_ASC_NODE":"290.1146","MEAN_MOTION":"15.73310267","SEMIMAJOR_AXIS":"6727.581","LAUNCH_DATE":"2022-10-28","TIME_SYSTEM":"UTC","DECAY_DATE":null,"INCLINATION":"53.2160","CLASSIFICATION_TYPE":"U","BSTAR":"0.00011411000000","GP_ID":"219936638","CENTER_NAME":"EARTH","EPHEMERIS_TYPE":"0","OBJECT_TYPE":"PAYLOAD","RCS_SIZE":"LARGE","APOAPSIS":"352.369","MEAN_MOTION_DDOT":"0.0000000000000","ELEMENT_SET_NO":"999","EPOCH":"2022-12-10T05:43:12.817920","COUNTRY_CODE":"US","SITE":"AFWTR","OBJECT_NAME":"STARLINK-5268","OBJECT_ID":"2022-141AM","TLE_LINE2":"2 54192  53.2160 290.1146 0004345   0.8520 359.2507 15.73310267  6837"}];
